STARLINK-36263          
1 67202U 25304L   26191.06691500  .00002639  00000+0  22886-3 0  9995
2 67202  69.9998 225.9775 0003424 270.2759  89.8007 14.98336325 32215
STARLINK-36224          
1 67203U 25304M   26190.52449794  .00002811  00000+0  24332-3 0  9992
2 67203  69.9999 227.2865 0003828 268.6780  91.3941 14.98328223 32139
STARLINK-36185          
1 67204U 25304N   26191.10863854  .00001281  00000+0  11510-3 0  9999
2 67204  70.0000 225.7189 0003890 263.9404  96.1312 14.98330836 32226
STARLINK-36197          
1 67205U 25304P   26191.09609913  .00001212  00000+0  10937-3 0  9998
2 67205  70.0004 225.6755 0003544 263.0813  96.9943 14.98332930 32191
STARLINK-36056          
1 67206U 25304Q   26190.47876983  .00001220  00000+0  11004-3 0  9998
2 67206  69.9994 227.5325 0003844 268.7147  91.3572 14.98327461 32095
STARLINK-36225          
1 67207U 25304R   26191.06291597  .00003022  00000+0  26092-3 0  9992
2 67207  69.9994 225.9572 0004010 266.5975  93.4725 14.98332516 32217
STARLINK-36265          
1 67208U 25304S   26191.07524572  .00001976  00000+0  17324-3 0  9990
2 67208  70.0004 226.0083 0003360 270.3730  89.7044 14.98351148 32215
STARLINK-36226          
1 67209U 25304T   26191.08778659  .00002756  00000+0  23861-3 0  9999
2 67209  69.9995 226.0519 0004026 267.2481  92.8218 14.98334630 32219
STARLINK-36173          
1 67210U 25304U   26191.05439383  .00002684  00000+0  23265-3 0  9994
2 67210  70.0003 225.9309 0003178 266.8120  93.2675 14.98332580 32215
STARLINK-36280          
1 67211U 25304V   26191.11280966  .00002820  00000+0  24398-3 0  9993
2 67211  70.0018 225.7348 0003804 267.8515  92.2209 14.98333658 32228
STARLINK-36213          
1 67212U 25304W   26191.10447038  .00003015  00000+0  26036-3 0  9996
2 67212  70.0013 225.7038 0003718 272.8410  87.2324 14.98335182 32220
STARLINK-36199          
1 67213U 25304X   26191.49248668  .00001502  00000+0  13363-3 0  9995
2 67213  69.9989 224.6510 0003740 263.5622  96.5111 14.98333799 32285
STARLINK-36203          
1 67214U 25304Y   26191.08377045  .00001804  00000+0  15891-3 0  9996
2 67214  69.9995 226.0324 0003653 265.4111  94.6631 14.98334802 32214
STARLINK-36221          
1 67215U 25304Z   26190.47459647  .00004414  00000+0  37752-3 0  9998
2 67215  70.0000 227.5160 0003485 267.4204  92.6556 14.98329788 32128
STARLINK-36212          
1 67216U 25304AA  26191.06709196  .00003298  00000+0  28400-3 0  9991
2 67216  69.9998 225.9724 0003902 267.8167  92.2546 14.98333006 32219
STARLINK-36216          
1 67217U 25304AB  26191.05874477  .00002766  00000+0  23953-3 0  9993
2 67217  70.0001 225.9440 0003781 267.7239  92.3487 14.98330123 32208
STARLINK-36211          
1 67218U 25304AC  26190.51631670  .00003746  00000+0  32150-3 0  9998
2 67218  69.9985 227.2566 0003507 265.9170  94.1589 14.98335468 32100
STARLINK-36490          
1 67305U 26002A   26191.49422838  .00013912  00000+0  51387-3 0  9992
2 67305  43.0032 351.4430 0004428 289.1799  70.8573 15.27591562 29923
STARLINK-36488          
1 67306U 26002B   26191.73404813  .00014123  00000+0  52100-3 0  9992
2 67306  42.9995 350.6668 0001079 271.0591  89.0137 15.27628399 29896
STARLINK-36481          
1 67307U 26002C   26190.80452987  .00013745  00000+0  50777-3 0  9992
2 67307  43.0013 355.7313 0001783 274.2288  85.8359 15.27600048 29759
STARLINK-36449          
1 67308U 26002D   26190.79682297  .00024409  00000+0  89281-3 0  9991
2 67308  43.0012 355.6708 0000826 140.7842 219.3070 15.27608743 29817
STARLINK-36482          
1 67309U 26002E   26191.51221682  .00012962  00000+0  47959-3 0  9997
2 67309  43.0033 351.5776 0001798 260.7602  99.3047 15.27589246 29868
STARLINK-36491          
1 67310U 26002F   26189.50708006  .00016321  00000+0  60051-3 0  9996
2 67310  43.0004   3.1988 0001358 275.3000  84.7696 15.27622220 29553
STARLINK-36495          
1 67311U 26002G   26191.76349110  .00015514  00000+0  57197-3 0  9995
2 67311  43.0092 350.0301 0002539 280.5806  79.4759 15.27587788 30066
STARLINK-36485          
1 67312U 26002H   26191.74934400  .00020718  00000+0  76013-3 0  9996
2 67312  42.9995 349.9090 0001344 176.6894 183.3967 15.27586234 29906
STARLINK-36445          
1 67313U 26002J   26190.75711180 -.00033106  00000+0 -11975-2 0  9997
2 67313  42.9997 356.2325 0001467 271.6534  88.4149 15.27618697 29900
STARLINK-36476          
1 67314U 26002K   26190.73530432  .00016816  00000+0  61923-3 0  9991
2 67314  43.0017 356.0680 0001638 266.8864  93.1801 15.27579056 29734
STARLINK-36463          
1 67315U 26002L   26191.76086068  .00022829  00000+0  83444-3 0  9990
2 67315  42.9991 349.9946 0003666 155.5922 204.5103 15.27659048 29960
STARLINK-36461          
1 67316U 26002M   26191.75705072  .00017290  00000+0  63587-3 0  9995
2 67316  43.0014 349.9691 0001285 204.1425 155.9367 15.27604852 30067
STARLINK-36450          
1 67317U 26002N   26191.73917227  .00022187  00000+0  81144-3 0  9991
2 67317  42.9986 350.6982 0001130 230.4490 129.6262 15.27657467 30050
