OBJECT_NAME,OBJECT_ID,EPOCH,MEAN_MOTION,ECCENTRICITY,INCLINATION,RA_OF_ASC_NODE,ARG_OF_PERICENTER,MEAN_ANOMALY,EPHEMERIS_TYPE,CLASSIFICATION_TYPE,NORAD_CAT_ID,ELEMENT_SET_NO,REV_AT_EPOCH,BSTAR,MEAN_MOTION_DOT,MEAN_MOTION_DDOT
STARLINK-36263,2025-304L,2026-07-10T01:36:21.456000,14.98336325,.00034248,69.9998,225.9775,270.2759,89.8007,0,U,67202,999,3221,.22886095E-3,.2639E-4,0
STARLINK-36224,2025-304M,2026-07-09T12:35:16.622016,14.98328223,.00038281,69.9999,227.2865,268.6780,91.3941,0,U,67203,999,3213,.24331617E-3,.2811E-4,0
STARLINK-36185,2025-304N,2026-07-10T02:36:26.369856,14.98330836,.00038905,70.0000,225.7189,263.9404,96.1312,0,U,67204,999,3222,.11510499E-3,.1281E-4,0
STARLINK-36197,2025-304P,2026-07-10T02:18:22.964832,14.98332930,.00035444,70.0004,225.6755,263.0813,96.9943,0,U,67205,999,3219,.10937123E-3,.1212E-4,0
STARLINK-36056,2025-304Q,2026-07-09T11:29:25.713312,14.98327461,.00038449,69.9994,227.5325,268.7147,91.3572,0,U,67206,999,3209,.11003659E-3,.122E-4,0
STARLINK-36225,2025-304R,2026-07-10T01:30:35.939808,14.98332516,.00040103,69.9994,225.9572,266.5975,93.4725,0,U,67207,999,3221,.26092064E-3,.3022E-4,0
STARLINK-36265,2025-304S,2026-07-10T01:48:21.230208,14.98351148,.00033609,70.0004,226.0083,270.3730,89.7044,0,U,67208,999,3221,.17323582E-3,.1976E-4,0
STARLINK-36226,2025-304T,2026-07-10T02:06:24.761376,14.98334630,.00040263,69.9995,226.0519,267.2481,92.8218,0,U,67209,999,3221,.23861132E-3,.2756E-4,0
STARLINK-36173,2025-304U,2026-07-10T01:18:19.626912,14.98332580,.00031789,70.0003,225.9309,266.8120,93.2675,0,U,67210,999,3221,.23264943E-3,.2684E-4,0
STARLINK-36280,2025-304V,2026-07-10T02:42:26.754624,14.98333658,.00038045,70.0018,225.7348,267.8515,92.2209,0,U,67211,999,3222,.24397543E-3,.282E-4,0
STARLINK-36213,2025-304W,2026-07-10T02:30:26.240832,14.98335182,.00037188,70.0013,225.7038,272.8410,87.2324,0,U,67212,999,3222,.26036374E-3,.3015E-4,0
STARLINK-36199,2025-304X,2026-07-10T11:49:10.849152,14.98333799,.000374,69.9989,224.6510,263.5622,96.5111,0,U,67213,999,3228,.13363E-3,.1502E-4,0
STARLINK-36203,2025-304Y,2026-07-10T02:00:37.766880,14.98334802,.00036532,69.9995,226.0324,265.4111,94.6631,0,U,67214,999,3221,.15890557E-3,.1804E-4,0
STARLINK-36221,2025-304Z,2026-07-09T11:23:25.135008,14.98329788,.00034855,70.0000,227.5160,267.4204,92.6556,0,U,67215,999,3212,.37751907E-3,.4414E-4,0
STARLINK-36212,2025-304AA,2026-07-10T01:36:36.745344,14.98333006,.00039022,69.9998,225.9724,267.8167,92.2546,0,U,67216,999,3221,.28400279E-3,.3298E-4,0
STARLINK-36216,2025-304AB,2026-07-10T01:24:35.548128,14.98330123,.00037812,70.0001,225.9440,267.7239,92.3487,0,U,67217,999,3220,.23952858E-3,.2766E-4,0
STARLINK-36211,2025-304AC,2026-07-09T12:23:29.762880,14.98335468,.00035071,69.9985,227.2566,265.9170,94.1589,0,U,67218,999,3210,.32150215E-3,.3746E-4,0
STARLINK-36490,2026-002A,2026-07-10T11:51:41.332032,15.27591562,.0004428,43.0032,351.4430,289.1799,70.8573,0,U,67305,999,2992,.51387E-3,.13912E-3,0
STARLINK-36488,2026-002B,2026-07-10T17:37:01.758432,15.27628399,.0001079,42.9995,350.6668,271.0591,89.0137,0,U,67306,999,2989,.521E-3,.14123E-3,0
STARLINK-36481,2026-002C,2026-07-09T19:18:31.380768,15.27600048,.00017839,43.0013,355.7313,274.2288,85.8359,0,U,67307,999,2975,.50777173E-3,.13745E-3,0
STARLINK-36449,2026-002D,2026-07-09T19:07:25.504608,15.27608743,.00008267,43.0012,355.6708,140.7842,219.3070,0,U,67308,999,2981,.89280833E-3,.24409E-3,0
STARLINK-36482,2026-002E,2026-07-10T12:17:35.533248,15.27589246,.0001798,43.0033,351.5776,260.7602,99.3047,0,U,67309,999,2986,.47959E-3,.12962E-3,0
STARLINK-36491,2026-002F,2026-07-08T12:10:11.717184,15.27622220,.00013589,43.0004,3.1988,275.3000,84.7696,0,U,67310,999,2955,.600512E-3,.16321E-3,0
STARLINK-36495,2026-002G,2026-07-10T18:19:25.631040,15.27587788,.0002539,43.0092,350.0301,280.5806,79.4759,0,U,67311,999,3006,.57197E-3,.15514E-3,0
STARLINK-36485,2026-002H,2026-07-10T17:59:03.321600,15.27586234,.0001344,42.9995,349.9090,176.6894,183.3967,0,U,67312,999,2990,.76013E-3,.20718E-3,0
STARLINK-36445,2026-002J,2026-07-09T18:10:14.459520,15.27618697,.00014673,42.9997,356.2325,271.6534,88.4149,0,U,67313,999,2990,-.11974641E-2,-.33106E-3,0
STARLINK-36476,2026-002K,2026-07-09T17:38:50.293248,15.27579056,.00016386,43.0017,356.0680,266.8864,93.1801,0,U,67314,999,2973,.61922932E-3,.16816E-3,0
STARLINK-36463,2026-002L,2026-07-10T18:15:38.362752,15.27659048,.0003666,42.9991,349.9946,155.5922,204.5103,0,U,67315,999,2996,.83444E-3,.22829E-3,0
STARLINK-36461,2026-002M,2026-07-10T18:10:09.182208,15.27604852,.0001285,43.0014,349.9691,204.1425,155.9367,0,U,67316,999,3006,.63587E-3,.1729E-3,0
STARLINK-36450,2026-002N,2026-07-10T17:44:24.484128,15.27657467,.000113,42.9986,350.6982,230.4490,129.6262,0,U,67317,999,3005,.81144E-3,.22187E-3,0
